{
  "type": "FeatureCollection",
  "features": [
    {
      "type": "Feature",
      "properties": {
        "norad_id": 29780,
        "name": "FENGYUN 1C DEB",
        "group": "fengyun-1c-debris",
        "lat": 40.197140681056034,
        "lon": -86.02257681639907,
        "alt_km": 798.0835034904303,
        "timestamp": "2025-12-26T07:29:18.726848+00:00",
        "meta_object_name": "FENGYUN 1C DEB",
        "meta_object_id": "1999-025BW",
        "meta_epoch": "2025-12-25T17:46:46.992288",
        "meta_mean_motion": 14.21129539,
        "meta_eccentricity": 0.00419594,
        "meta_inclination": 99.2782,
        "meta_ra_of_asc_node": 281.3174,
        "meta_arg_of_pericenter": 90.6814,
        "meta_mean_anomaly": 269.9169,
        "meta_ephemeris_type": 0,
        "meta_classification_type": "U",
        "meta_norad_cat_id": 29780,
        "meta_element_set_no": 999,
        "meta_rev_at_epoch": 97263,
        "meta_bstar": 0.0018015459,
        "meta_mean_motion_dot": 3.904e-05,
        "meta_mean_motion_ddot": 0,
        "tle_line1": "1 29780U 99025BW  25359.74082167  .00003904  00000+0  18015-2 0  9992",
        "tle_line2": "2 29780  99.2782 281.3174 0041959  90.6814 269.9169 14.21129539972633"
      },
      "geometry": {
        "type": "Point",
        "coordinates": [
          -86.02257681639907,
          40.197140681056034
        ]
      }
    },
    {
      "type": "Feature",
      "properties": {
        "norad_id": 29781,
        "name": "FENGYUN 1C DEB",
        "group": "fengyun-1c-debris",
        "lat": -60.21622803885158,
        "lon": 9.803740673344048,
        "alt_km": 933.073853371875,
        "timestamp": "2025-12-26T07:29:18.726858+00:00",
        "meta_object_name": "FENGYUN 1C DEB",
        "meta_object_id": "1999-025BX",
        "meta_epoch": "2025-12-25T13:35:34.685088",
        "meta_mean_motion": 14.05256875,
        "meta_eccentricity": 0.0072395,
        "meta_inclination": 98.8107,
        "meta_ra_of_asc_node": 353.356,
        "meta_arg_of_pericenter": 137.2244,
        "meta_mean_anomaly": 351.071,
        "meta_ephemeris_type": 0,
        "meta_classification_type": "U",
        "meta_norad_cat_id": 29781,
        "meta_element_set_no": 999,
        "meta_rev_at_epoch": 96823,
        "meta_bstar": 0.00061135,
        "meta_mean_motion_dot": 9.7e-06,
        "meta_mean_motion_ddot": 0,
        "tle_line1": "1 29781U 99025BX  25359.56637367  .00000970  00000+0  61135-3 0  9993",
        "tle_line2": "2 29781  98.8107 353.3560 0072395 137.2244 351.0710 14.05256875968234"
      },
      "geometry": {
        "type": "Point",
        "coordinates": [
          9.803740673344048,
          -60.21622803885158
        ]
      }
    },
    {
      "type": "Feature",
      "properties": {
        "norad_id": 29782,
        "name": "FENGYUN 1C DEB",
        "group": "fengyun-1c-debris",
        "lat": -66.91464868428419,
        "lon": 76.1830985253806,
        "alt_km": 883.9208714479937,
        "timestamp": "2025-12-26T07:29:18.726869+00:00",
        "meta_object_name": "FENGYUN 1C DEB",
        "meta_object_id": "1999-025BY",
        "meta_epoch": "2025-12-25T17:07:06.587616",
        "meta_mean_motion": 14.11720454,
        "meta_eccentricity": 0.00557423,
        "meta_inclination": 99.099,
        "meta_ra_of_asc_node": 53.4909,
        "meta_arg_of_pericenter": 167.5786,
        "meta_mean_anomaly": 321.9584,
        "meta_ephemeris_type": 0,
        "meta_classification_type": "U",
        "meta_norad_cat_id": 29782,
        "meta_element_set_no": 999,
        "meta_rev_at_epoch": 96854,
        "meta_bstar": 0.001124683,
        "meta_mean_motion_dot": 2.033e-05,
        "meta_mean_motion_ddot": 0,
        "tle_line1": "1 29782U 99025BY  25359.71327069  .00002033  00000+0  11247-2 0  9996",
        "tle_line2": "2 29782  99.0990  53.4909 0055742 167.5786 321.9584 14.11720454968542"
      },
      "geometry": {
        "type": "Point",
        "coordinates": [
          76.1830985253806,
          -66.91464868428419
        ]
      }
    },
    {
      "type": "Feature",
      "properties": {
        "norad_id": 29784,
        "name": "FENGYUN 1C DEB",
        "group": "fengyun-1c-debris",
        "lat": -71.41615982366947,
        "lon": -52.56415169781628,
        "alt_km": 759.8334513423033,
        "timestamp": "2025-12-26T07:29:18.726879+00:00",
        "meta_object_name": "FENGYUN 1C DEB",
        "meta_object_id": "1999-025CA",
        "meta_epoch": "2025-12-25T18:42:46.840320",
        "meta_mean_motion": 14.30617414,
        "meta_eccentricity": 0.00591213,
        "meta_inclination": 98.9467,
        "meta_ra_of_asc_node": 278.9492,
        "meta_arg_of_pericenter": 258.8267,
        "meta_mean_anomaly": 167.249,
        "meta_ephemeris_type": 0,
        "meta_classification_type": "U",
        "meta_norad_cat_id": 29784,
        "meta_element_set_no": 999,
        "meta_rev_at_epoch": 98546,
        "meta_bstar": 0.00049327181,
        "meta_mean_motion_dot": 1.265e-05,
        "meta_mean_motion_ddot": 0,
        "tle_line1": "1 29784U 99025CA  25359.77970880  .00001265  00000+0  49327-3 0  9996",
        "tle_line2": "2 29784  98.9467 278.9492 0059121 258.8267 167.2490 14.30617414985464"
      },
      "geometry": {
        "type": "Point",
        "coordinates": [
          -52.56415169781628,
          -71.41615982366947
        ]
      }
    },
    {
      "type": "Feature",
      "properties": {
        "norad_id": 29786,
        "name": "FENGYUN 1C DEB",
        "group": "fengyun-1c-debris",
        "lat": -72.93709769705366,
        "lon": 167.05615447433908,
        "alt_km": 814.7547503017513,
        "timestamp": "2025-12-26T07:29:18.726890+00:00",
        "meta_object_name": "FENGYUN 1C DEB",
        "meta_object_id": "1999-025CC",
        "meta_epoch": "2025-12-25T23:45:26.178912",
        "meta_mean_motion": 14.09092856,
        "meta_eccentricity": 0.00768692,
        "meta_inclination": 98.7349,
        "meta_ra_of_asc_node": 16.8034,
        "meta_arg_of_pericenter": 265.1151,
        "meta_mean_anomaly": 157.077,
        "meta_ephemeris_type": 0,
        "meta_classification_type": "U",
        "meta_norad_cat_id": 29786,
        "meta_element_set_no": 999,
        "meta_rev_at_epoch": 97347,
        "meta_bstar": 0.00021228896,
        "meta_mean_motion_dot": 3.35e-06,
        "meta_mean_motion_ddot": 0,
        "tle_line1": "1 29786U 99025CC  25359.98988633  .00000335  00000+0  21229-3 0  9994",
        "tle_line2": "2 29786  98.7349  16.8034 0076869 265.1151 157.0770 14.09092856973474"
      },
      "geometry": {
        "type": "Point",
        "coordinates": [
          167.05615447433908,
          -72.93709769705366
        ]
      }
    },
    {
      "type": "Feature",
      "properties": {
        "norad_id": 29788,
        "name": "FENGYUN 1C DEB",
        "group": "fengyun-1c-debris",
        "lat": -62.43658878649623,
        "lon": 89.19669320574037,
        "alt_km": 837.3807756708229,
        "timestamp": "2025-12-26T07:29:18.726900+00:00",
        "meta_object_name": "FENGYUN 1C DEB",
        "meta_object_id": "1999-025CE",
        "meta_epoch": "2025-12-25T15:41:05.086176",
        "meta_mean_motion": 14.26065254,
        "meta_eccentricity": 0.0043093,
        "meta_inclination": 98.7828,
        "meta_ra_of_asc_node": 71.3083,
        "meta_arg_of_pericenter": 153.1381,
        "meta_mean_anomaly": 4.1851,
        "meta_ephemeris_type": 0,
        "meta_classification_type": "U",
        "meta_norad_cat_id": 29788,
        "meta_element_set_no": 999,
        "meta_rev_at_epoch": 97539,
        "meta_bstar": 0.0015934,
        "meta_mean_motion_dot": 3.801e-05,
        "meta_mean_motion_ddot": 0,
        "tle_line1": "1 29788U 99025CE  25359.65353109  .00003801  00000+0  15934-2 0  9990",
        "tle_line2": "2 29788  98.7828  71.3083 0043093 153.1381   4.1851 14.26065254975398"
      },
      "geometry": {
        "type": "Point",
        "coordinates": [
          89.19669320574037,
          -62.43658878649623
        ]
      }
    },
    {
      "type": "Feature",
      "properties": {
        "norad_id": 29789,
        "name": "FENGYUN 1C DEB",
        "group": "fengyun-1c-debris",
        "lat": 2.6615903938490924,
        "lon": 2.9769608765199176,
        "alt_km": 968.1149814076998,
        "timestamp": "2025-12-26T07:29:18.726910+00:00",
        "meta_object_name": "FENGYUN 1C DEB",
        "meta_object_id": "1999-025CF",
        "meta_epoch": "2025-12-24T19:12:01.596672",
        "meta_mean_motion": 13.54268457,
        "meta_eccentricity": 0.02982871,
        "meta_inclination": 99.4515,
        "meta_ra_of_asc_node": 181.086,
        "meta_arg_of_pericenter": 248.3732,
        "meta_mean_anomaly": 124.1767,
        "meta_ephemeris_type": 0,
        "meta_classification_type": "U",
        "meta_norad_cat_id": 29789,
        "meta_element_set_no": 999,
        "meta_rev_at_epoch": 93151,
        "meta_bstar": 0.0013542928,
        "meta_mean_motion_dot": 1.18e-05,
        "meta_mean_motion_ddot": 0,
        "tle_line1": "1 29789U 99025CF  25358.80001848  .00001180  00000+0  13543-2 0  9999",
        "tle_line2": "2 29789  99.4515 181.0860 0298287 248.3732 124.1767 13.54268457931511"
      },
      "geometry": {
        "type": "Point",
        "coordinates": [
          2.9769608765199176,
          2.6615903938490924
        ]
      }
    }
  ]
}